STARLINK-30350          
1 57746U 23131Q   26080.76967201  .00009335  00000+0  34816-3 0  9997
2 57746  43.0023 100.8371 0001453 271.7745  88.2941 15.27595989141805
STARLINK-30307          
1 57747U 23131R   26081.16668981 -.00008771  00000+0 -31745-3 0  9999
2 57747  42.9999 101.9600 0001372 277.6553 130.0309 15.26763526  5766
STARLINK-30356          
1 57748U 23131S   26081.16668981 -.00004947  00000+0 -17480-3 0  9991
2 57748  43.0004 101.3834 0001235 257.4169  34.2563 15.26754439  5812
STARLINK-30366          
1 57749U 23131T   26081.16668981  .00058250  00000+0  35686-2 0  9993
2 57749  43.0013 103.4111 0000716 316.2011 193.6251 15.09379738  5817
STARLINK-30357          
1 57750U 23131U   26080.76110024  .00000555  00000+0  56125-4 0  9998
2 57750  43.0027 105.8832 0001238 277.2150  82.8552 15.02537583141743
STARLINK-30370          
1 57751U 23131V   26080.40556181 -.00001196  00000+0 -33980-4 0  9996
2 57751  43.0000  91.3838 0000532 268.6918  91.3873 15.27568127141883
STARLINK-30368          
1 57752U 23131W   26080.76139732  .00000837  00000+0  40851-4 0  9999
2 57752  43.0016 104.1581 0000889 264.5094  95.5656 15.26752413141768
STARLINK-30343          
1 57753U 23131X   26080.76442737 -.00001161  00000+0 -70914-4 0  9998
2 57753  43.0027 105.9090 0001382 276.1775  83.8910 15.02536570141748
STARLINK-30397          
1 57771U 23134A   26080.84729128  .00002237  00000+0  90767-4 0  9993
2 57771  43.0049 126.0468 0001281 271.5720  88.4985 15.27595580141366
STARLINK-30354          
1 57772U 23134B   26081.16668981  .00017806  00000+0  67217-3 0  9990
2 57772  43.0000 126.9238 0001394 265.7619 355.3792 15.26724779  5819
STARLINK-30383          
1 57773U 23134C   26081.16668981  .00016572  00000+0  61067-3 0  9997
2 57773  43.0001 127.1063 0001591 271.2003 276.3807 15.27563613  5827
STARLINK-30384          
1 57774U 23134D   26081.00002315  .00043474  00000+0  16236-2 0  9992
2 57774  42.9999 127.7956 0001168 250.0951 204.4032 15.26684370  5742
STARLINK-30305          
1 57775U 23134E   26080.85115570  .00001396  00000+0  60220-4 0  9994
2 57775  43.0043 126.0713 0001679 271.2404  88.8255 15.27589374141362
STARLINK-30360          
1 57776U 23134F   26080.85243652  .00000842  00000+0  40088-4 0  9993
2 57776  43.0017 126.0821 0001461 278.0656  82.0029 15.27592877141364
STARLINK-30355          
1 57777U 23134G   26081.16668981  .00030956  00000+0  11607-2 0  9997
2 57777  42.9990 127.2642 0001177 250.9280 217.4972 15.26689127  5727
STARLINK-30385          
1 57778U 23134H   26080.80487134  .00060443  00000+0  22071-2 0  9998
2 57778  43.0020 114.5777 0001331 277.0344  83.0356 15.27294980141336
