[{"OBJECT_NAME":"STARLINK-30350","OBJECT_ID":"2023-131Q","EPOCH":"2026-03-21T18:28:19.661664","MEAN_MOTION":15.27595989,"ECCENTRICITY":0.00014532,"INCLINATION":43.0023,"RA_OF_ASC_NODE":100.8371,"ARG_OF_PERICENTER":271.7745,"MEAN_ANOMALY":88.2941,"EPHEMERIS_TYPE":0,"CLASSIFICATION_TYPE":"U","NORAD_CAT_ID":57746,"ELEMENT_SET_NO":999,"REV_AT_EPOCH":14180,"BSTAR":0.00034816026,"MEAN_MOTION_DOT":9.335e-5,"MEAN_MOTION_DDOT":0},{"OBJECT_NAME":"STARLINK-30307","OBJECT_ID":"2023-131R","EPOCH":"2026-03-22T04:00:01.999584","MEAN_MOTION":15.26763526,"ECCENTRICITY":0.00013723,"INCLINATION":42.9999,"RA_OF_ASC_NODE":101.96,"ARG_OF_PERICENTER":277.6553,"MEAN_ANOMALY":130.0309,"EPHEMERIS_TYPE":0,"CLASSIFICATION_TYPE":"U","NORAD_CAT_ID":57747,"ELEMENT_SET_NO":999,"REV_AT_EPOCH":576,"BSTAR":-0.00031745342,"MEAN_MOTION_DOT":-8.771e-5,"MEAN_MOTION_DDOT":0},{"OBJECT_NAME":"STARLINK-30356","OBJECT_ID":"2023-131S","EPOCH":"2026-03-22T04:00:01.999584","MEAN_MOTION":15.26754439,"ECCENTRICITY":0.00012351,"INCLINATION":43.0004,"RA_OF_ASC_NODE":101.3834,"ARG_OF_PERICENTER":257.4169,"MEAN_ANOMALY":34.2563,"EPHEMERIS_TYPE":0,"CLASSIFICATION_TYPE":"U","NORAD_CAT_ID":57748,"ELEMENT_SET_NO":999,"REV_AT_EPOCH":581,"BSTAR":-0.00017479877,"MEAN_MOTION_DOT":-4.947e-5,"MEAN_MOTION_DDOT":0},{"OBJECT_NAME":"STARLINK-30366","OBJECT_ID":"2023-131T","EPOCH":"2026-03-22T04:00:01.999584","MEAN_MOTION":15.09379738,"ECCENTRICITY":7.164e-5,"INCLINATION":43.0013,"RA_OF_ASC_NODE":103.4111,"ARG_OF_PERICENTER":316.2011,"MEAN_ANOMALY":193.6251,"EPHEMERIS_TYPE":0,"CLASSIFICATION_TYPE":"U","NORAD_CAT_ID":57749,"ELEMENT_SET_NO":999,"REV_AT_EPOCH":581,"BSTAR":0.0035685653,"MEAN_MOTION_DOT":0.0005825,"MEAN_MOTION_DDOT":0},{"OBJECT_NAME":"STARLINK-30357","OBJECT_ID":"2023-131U","EPOCH":"2026-03-21T18:15:59.060736","MEAN_MOTION":15.02537583,"ECCENTRICITY":0.00012386,"INCLINATION":43.0027,"RA_OF_ASC_NODE":105.8832,"ARG_OF_PERICENTER":277.215,"MEAN_ANOMALY":82.8552,"EPHEMERIS_TYPE":0,"CLASSIFICATION_TYPE":"U","NORAD_CAT_ID":57750,"ELEMENT_SET_NO":999,"REV_AT_EPOCH":14174,"BSTAR":5.6125211e-5,"MEAN_MOTION_DOT":5.55e-6,"MEAN_MOTION_DDOT":0},{"OBJECT_NAME":"STARLINK-30370","OBJECT_ID":"2023-131V","EPOCH":"2026-03-21T09:44:00.540384","MEAN_MOTION":15.27568127,"ECCENTRICITY":5.324e-5,"INCLINATION":43,"RA_OF_ASC_NODE":91.3838,"ARG_OF_PERICENTER":268.6918,"MEAN_ANOMALY":91.3873,"EPHEMERIS_TYPE":0,"CLASSIFICATION_TYPE":"U","NORAD_CAT_ID":57751,"ELEMENT_SET_NO":999,"REV_AT_EPOCH":14188,"BSTAR":-3.3980383e-5,"MEAN_MOTION_DOT":-1.196e-5,"MEAN_MOTION_DDOT":0},{"OBJECT_NAME":"STARLINK-30368","OBJECT_ID":"2023-131W","EPOCH":"2026-03-21T18:16:24.728448","MEAN_MOTION":15.26752413,"ECCENTRICITY":8.89e-5,"INCLINATION":43.0016,"RA_OF_ASC_NODE":104.1581,"ARG_OF_PERICENTER":264.5094,"MEAN_ANOMALY":95.5656,"EPHEMERIS_TYPE":0,"CLASSIFICATION_TYPE":"U","NORAD_CAT_ID":57752,"ELEMENT_SET_NO":999,"REV_AT_EPOCH":14176,"BSTAR":4.0850716e-5,"MEAN_MOTION_DOT":8.37e-6,"MEAN_MOTION_DDOT":0},{"OBJECT_NAME":"STARLINK-30343","OBJECT_ID":"2023-131X","EPOCH":"2026-03-21T18:20:46.524768","MEAN_MOTION":15.0253657,"ECCENTRICITY":0.00013828,"INCLINATION":43.0027,"RA_OF_ASC_NODE":105.909,"ARG_OF_PERICENTER":276.1775,"MEAN_ANOMALY":83.891,"EPHEMERIS_TYPE":0,"CLASSIFICATION_TYPE":"U","NORAD_CAT_ID":57753,"ELEMENT_SET_NO":999,"REV_AT_EPOCH":14174,"BSTAR":-7.09138e-5,"MEAN_MOTION_DOT":-1.161e-5,"MEAN_MOTION_DDOT":0},{"OBJECT_NAME":"STARLINK-30397","OBJECT_ID":"2023-134A","EPOCH":"2026-03-21T20:20:05.966592","MEAN_MOTION":15.2759558,"ECCENTRICITY":0.00012816,"INCLINATION":43.0049,"RA_OF_ASC_NODE":126.0468,"ARG_OF_PERICENTER":271.572,"MEAN_ANOMALY":88.4985,"EPHEMERIS_TYPE":0,"CLASSIFICATION_TYPE":"U","NORAD_CAT_ID":57771,"ELEMENT_SET_NO":999,"REV_AT_EPOCH":14136,"BSTAR":9.0766848e-5,"MEAN_MOTION_DOT":2.237e-5,"MEAN_MOTION_DDOT":0},{"OBJECT_NAME":"STARLINK-30354","OBJECT_ID":"2023-134B","EPOCH":"2026-03-22T04:00:01.999584","MEAN_MOTION":15.26724779,"ECCENTRICITY":0.00013944,"INCLINATION":43,"RA_OF_ASC_NODE":126.9238,"ARG_OF_PERICENTER":265.7619,"MEAN_ANOMALY":355.3792,"EPHEMERIS_TYPE":0,"CLASSIFICATION_TYPE":"U","NORAD_CAT_ID":57772,"ELEMENT_SET_NO":999,"REV_AT_EPOCH":581,"BSTAR":0.00067217347,"MEAN_MOTION_DOT":0.00017806,"MEAN_MOTION_DDOT":0},{"OBJECT_NAME":"STARLINK-30383","OBJECT_ID":"2023-134C","EPOCH":"2026-03-22T04:00:01.999584","MEAN_MOTION":15.27563613,"ECCENTRICITY":0.00015912,"INCLINATION":43.0001,"RA_OF_ASC_NODE":127.1063,"ARG_OF_PERICENTER":271.2003,"MEAN_ANOMALY":276.3807,"EPHEMERIS_TYPE":0,"CLASSIFICATION_TYPE":"U","NORAD_CAT_ID":57773,"ELEMENT_SET_NO":999,"REV_AT_EPOCH":582,"BSTAR":0.00061067011,"MEAN_MOTION_DOT":0.00016572,"MEAN_MOTION_DDOT":0},{"OBJECT_NAME":"STARLINK-30384","OBJECT_ID":"2023-134D","EPOCH":"2026-03-22T00:00:02.000160","MEAN_MOTION":15.2668437,"ECCENTRICITY":0.00011684,"INCLINATION":42.9999,"RA_OF_ASC_NODE":127.7956,"ARG_OF_PERICENTER":250.0951,"MEAN_ANOMALY":204.4032,"EPHEMERIS_TYPE":0,"CLASSIFICATION_TYPE":"U","NORAD_CAT_ID":57774,"ELEMENT_SET_NO":999,"REV_AT_EPOCH":574,"BSTAR":0.0016235724,"MEAN_MOTION_DOT":0.00043474,"MEAN_MOTION_DDOT":0},{"OBJECT_NAME":"STARLINK-30305","OBJECT_ID":"2023-134E","EPOCH":"2026-03-21T20:25:39.852480","MEAN_MOTION":15.27589374,"ECCENTRICITY":0.00016797,"INCLINATION":43.0043,"RA_OF_ASC_NODE":126.0713,"ARG_OF_PERICENTER":271.2404,"MEAN_ANOMALY":88.8255,"EPHEMERIS_TYPE":0,"CLASSIFICATION_TYPE":"U","NORAD_CAT_ID":57775,"ELEMENT_SET_NO":999,"REV_AT_EPOCH":14136,"BSTAR":6.0219765e-5,"MEAN_MOTION_DOT":1.396e-5,"MEAN_MOTION_DDOT":0},{"OBJECT_NAME":"STARLINK-30360","OBJECT_ID":"2023-134F","EPOCH":"2026-03-21T20:27:30.515328","MEAN_MOTION":15.27592877,"ECCENTRICITY":0.00014613,"INCLINATION":43.0017,"RA_OF_ASC_NODE":126.0821,"ARG_OF_PERICENTER":278.0656,"MEAN_ANOMALY":82.0029,"EPHEMERIS_TYPE":0,"CLASSIFICATION_TYPE":"U","NORAD_CAT_ID":57776,"ELEMENT_SET_NO":999,"REV_AT_EPOCH":14136,"BSTAR":4.008815e-5,"MEAN_MOTION_DOT":8.42e-6,"MEAN_MOTION_DDOT":0},{"OBJECT_NAME":"STARLINK-30355","OBJECT_ID":"2023-134G","EPOCH":"2026-03-22T04:00:01.999584","MEAN_MOTION":15.26689127,"ECCENTRICITY":0.00011779,"INCLINATION":42.999,"RA_OF_ASC_NODE":127.2642,"ARG_OF_PERICENTER":250.928,"MEAN_ANOMALY":217.4972,"EPHEMERIS_TYPE":0,"CLASSIFICATION_TYPE":"U","NORAD_CAT_ID":57777,"ELEMENT_SET_NO":999,"REV_AT_EPOCH":572,"BSTAR":0.0011606626,"MEAN_MOTION_DOT":0.00030956,"MEAN_MOTION_DDOT":0},{"OBJECT_NAME":"STARLINK-30385","OBJECT_ID":"2023-134H","EPOCH":"2026-03-21T19:19:00.883776","MEAN_MOTION":15.2729498,"ECCENTRICITY":0.00013316,"INCLINATION":43.002,"RA_OF_ASC_NODE":114.5777,"ARG_OF_PERICENTER":277.0344,"MEAN_ANOMALY":83.0356,"EPHEMERIS_TYPE":0,"CLASSIFICATION_TYPE":"U","NORAD_CAT_ID":57778,"ELEMENT_SET_NO":999,"REV_AT_EPOCH":14133,"BSTAR":0.0022071134,"MEAN_MOTION_DOT":0.00060443,"MEAN_MOTION_DDOT":0}]
